ORBCOMM FM115 [+]       
1 41186U 15081H   23228.41846537  .00000899  00000+0  22186-3 0  9997
2 41186  47.0009 342.4595 0001553 242.5757 117.4971 14.59828918409682
ORBCOMM FM108 [+]       
1 41187U 15081J   23227.85483564  .00000972  00000+0  25735-3 0  9997
2 41187  47.0060  31.0627 0002158 134.1880 225.9182 14.55826186408984
ORBCOMM FM117 [+]       
1 41188U 15081K   23228.71201098  .00000961  00000+0  25482-3 0  9991
2 41188  47.0022  26.0058 0003015 145.8824 214.2255 14.55828135409120
ORBCOMM FM116 [+]       
1 41189U 15081L   23228.01575167  .00000894  00000+0  23977-3 0  9998
2 41189  47.0018 119.0871 0002080 232.0549 128.0148 14.55827349407853
