<?xml version="1.0" encoding="UTF-8"?>
<ndm xmlns:xsi="http://www.w3.org/2001/XMLSchema-instance" xsi:noNamespaceSchemaLocation="https://sanaregistry.org/r/ndmxml_unqualified/ndmxml-2.0.0-master-2.0.xsd">
<omm id="CCSDS_OMM_VERS" version="2.0">
<header><CREATION_DATE/><ORIGINATOR/></header><body><segment><metadata><OBJECT_NAME>ORBCOMM FM115 [+]</OBJECT_NAME><OBJECT_ID>2015-081H</OBJECT_ID><CENTER_NAME>EARTH</CENTER_NAME><REF_FRAME>TEME</REF_FRAME><TIME_SYSTEM>UTC</TIME_SYSTEM><MEAN_ELEMENT_THEORY>SGP4</MEAN_ELEMENT_THEORY></metadata><data><meanElements><EPOCH>2023-08-16T10:02:35.407968</EPOCH><MEAN_MOTION>14.59828918</MEAN_MOTION><ECCENTRICITY>.0001553</ECCENTRICITY><INCLINATION>47.0009</INCLINATION><RA_OF_ASC_NODE>342.4595</RA_OF_ASC_NODE><ARG_OF_PERICENTER>242.5757</ARG_OF_PERICENTER><MEAN_ANOMALY>117.4971</MEAN_ANOMALY></meanElements><tleParameters><EPHEMERIS_TYPE>0</EPHEMERIS_TYPE><CLASSIFICATION_TYPE>U</CLASSIFICATION_TYPE><NORAD_CAT_ID>41186</NORAD_CAT_ID><ELEMENT_SET_NO>999</ELEMENT_SET_NO><REV_AT_EPOCH>40968</REV_AT_EPOCH><BSTAR>.22186E-3</BSTAR><MEAN_MOTION_DOT>.899E-5</MEAN_MOTION_DOT><MEAN_MOTION_DDOT>0</MEAN_MOTION_DDOT></tleParameters></data></segment></body></omm>
<omm id="CCSDS_OMM_VERS" version="2.0">
<header><CREATION_DATE/><ORIGINATOR/></header><body><segment><metadata><OBJECT_NAME>ORBCOMM FM108 [+]</OBJECT_NAME><OBJECT_ID>2015-081J</OBJECT_ID><CENTER_NAME>EARTH</CENTER_NAME><REF_FRAME>TEME</REF_FRAME><TIME_SYSTEM>UTC</TIME_SYSTEM><MEAN_ELEMENT_THEORY>SGP4</MEAN_ELEMENT_THEORY></metadata><data><meanElements><EPOCH>2023-08-15T20:30:57.799296</EPOCH><MEAN_MOTION>14.55826186</MEAN_MOTION><ECCENTRICITY>.0002158</ECCENTRICITY><INCLINATION>47.0060</INCLINATION><RA_OF_ASC_NODE>31.0627</RA_OF_ASC_NODE><ARG_OF_PERICENTER>134.1880</ARG_OF_PERICENTER><MEAN_ANOMALY>225.9182</MEAN_ANOMALY></meanElements><tleParameters><EPHEMERIS_TYPE>0</EPHEMERIS_TYPE><CLASSIFICATION_TYPE>U</CLASSIFICATION_TYPE><NORAD_CAT_ID>41187</NORAD_CAT_ID><ELEMENT_SET_NO>999</ELEMENT_SET_NO><REV_AT_EPOCH>40898</REV_AT_EPOCH><BSTAR>.25735E-3</BSTAR><MEAN_MOTION_DOT>.972E-5</MEAN_MOTION_DOT><MEAN_MOTION_DDOT>0</MEAN_MOTION_DDOT></tleParameters></data></segment></body></omm>
<omm id="CCSDS_OMM_VERS" version="2.0">
<header><CREATION_DATE/><ORIGINATOR/></header><body><segment><metadata><OBJECT_NAME>ORBCOMM FM117 [+]</OBJECT_NAME><OBJECT_ID>2015-081K</OBJECT_ID><CENTER_NAME>EARTH</CENTER_NAME><REF_FRAME>TEME</REF_FRAME><TIME_SYSTEM>UTC</TIME_SYSTEM><MEAN_ELEMENT_THEORY>SGP4</MEAN_ELEMENT_THEORY></metadata><data><meanElements><EPOCH>2023-08-16T17:05:17.748672</EPOCH><MEAN_MOTION>14.55828135</MEAN_MOTION><ECCENTRICITY>.0003015</ECCENTRICITY><INCLINATION>47.0022</INCLINATION><RA_OF_ASC_NODE>26.0058</RA_OF_ASC_NODE><ARG_OF_PERICENTER>145.8824</ARG_OF_PERICENTER><MEAN_ANOMALY>214.2255</MEAN_ANOMALY></meanElements><tleParameters><EPHEMERIS_TYPE>0</EPHEMERIS_TYPE><CLASSIFICATION_TYPE>U</CLASSIFICATION_TYPE><NORAD_CAT_ID>41188</NORAD_CAT_ID><ELEMENT_SET_NO>999</ELEMENT_SET_NO><REV_AT_EPOCH>40912</REV_AT_EPOCH><BSTAR>.25482E-3</BSTAR><MEAN_MOTION_DOT>.961E-5</MEAN_MOTION_DOT><MEAN_MOTION_DDOT>0</MEAN_MOTION_DDOT></tleParameters></data></segment></body></omm>
<omm id="CCSDS_OMM_VERS" version="2.0">
<header><CREATION_DATE/><ORIGINATOR/></header><body><segment><metadata><OBJECT_NAME>ORBCOMM FM116 [+]</OBJECT_NAME><OBJECT_ID>2015-081L</OBJECT_ID><CENTER_NAME>EARTH</CENTER_NAME><REF_FRAME>TEME</REF_FRAME><TIME_SYSTEM>UTC</TIME_SYSTEM><MEAN_ELEMENT_THEORY>SGP4</MEAN_ELEMENT_THEORY></metadata><data><meanElements><EPOCH>2023-08-16T00:22:40.944288</EPOCH><MEAN_MOTION>14.55827349</MEAN_MOTION><ECCENTRICITY>.000208</ECCENTRICITY><INCLINATION>47.0018</INCLINATION><RA_OF_ASC_NODE>119.0871</RA_OF_ASC_NODE><ARG_OF_PERICENTER>232.0549</ARG_OF_PERICENTER><MEAN_ANOMALY>128.0148</MEAN_ANOMALY></meanElements><tleParameters><EPHEMERIS_TYPE>0</EPHEMERIS_TYPE><CLASSIFICATION_TYPE>U</CLASSIFICATION_TYPE><NORAD_CAT_ID>41189</NORAD_CAT_ID><ELEMENT_SET_NO>999</ELEMENT_SET_NO><REV_AT_EPOCH>40785</REV_AT_EPOCH><BSTAR>.23977E-3</BSTAR><MEAN_MOTION_DOT>.894E-5</MEAN_MOTION_DOT><MEAN_MOTION_DDOT>0</MEAN_MOTION_DDOT></tleParameters></data></segment></body></omm>
</ndm>
